{
  "links" : {
    "next" : "https://api.nasa.gov/neo/rest/v1/neo/browse?page=41&size=20&api_key=jqAGvNAwUIBu4fl9FSOjdm3V4F7hIglRzI6pdX9d",
    "prev" : "https://api.nasa.gov/neo/rest/v1/neo/browse?page=39&size=20&api_key=jqAGvNAwUIBu4fl9FSOjdm3V4F7hIglRzI6pdX9d",
    "self" : "https://api.nasa.gov/neo/rest/v1/neo/browse?page=40&size=20&api_key=jqAGvNAwUIBu4fl9FSOjdm3V4F7hIglRzI6pdX9d"
  },
  "page" : {
    "size" : 20,
    "total_elements" : 20750,
    "total_pages" : 1038,
    "number" : 40
  },
  "near_earth_objects" : [ {
    "links" : {
      "self" : "https://api.nasa.gov/neo/rest/v1/neo/3402638?api_key=jqAGvNAwUIBu4fl9FSOjdm3V4F7hIglRzI6pdX9d"
    },
    "neo_reference_id" : "3402638",
    "name" : "(2008 CY118)",
    "designation" : "2008 CY118",
    "nasa_jpl_url" : "http://ssd.jpl.nasa.gov/sbdb.cgi?sstr=3402638",
    "absolute_magnitude_h" : 25.0,
    "estimated_diameter" : {
      "kilometers" : {
        "estimated_diameter_min" : 0.02658,
        "estimated_diameter_max" : 0.0594346868
      },
      "meters" : {
        "estimated_diameter_min" : 26.58,
        "estimated_diameter_max" : 59.4346868419
      },
      "miles" : {
        "estimated_diameter_min" : 0.0165160412,
        "estimated_diameter_max" : 0.0369309908
      },
      "feet" : {
        "estimated_diameter_min" : 87.2047272,
        "estimated_diameter_max" : 194.9956979785
      }
    },
    "is_potentially_hazardous_asteroid" : false,
    "close_approach_data" : [ {
      "close_approach_date" : "2008-02-02",
      "epoch_date_close_approach" : 1201939200000,
      "relative_velocity" : {
        "kilometers_per_second" : "14.3632738861",
        "kilometers_per_hour" : "51707.7859899449",
        "miles_per_hour" : "32129.2073558077"
      },
      "miss_distance" : {
        "astronomical" : "0.0839066798",
        "lunar" : "32.6396980286",
        "kilometers" : "12552261",
        "miles" : "7799613.5"
      },
      "orbiting_body" : "Earth"
    } ],
    "orbital_data" : {
      "orbit_id" : "6",
      "orbit_determination_date" : "2017-04-06 09:04:20",
      "first_observation_date" : "2008-02-12",
      "last_observation_date" : "2008-02-14",
      "data_arc_in_days" : 2,
      "observations_used" : 16,
      "orbit_uncertainty" : "9",
      "minimum_orbit_intersection" : ".0754427",
      "jupiter_tisserand_invariant" : "4.854",
      "epoch_osculation" : "2454509.5",
      "eccentricity" : ".3734872277287979",
      "semi_major_axis" : "1.303976904239887",
      "inclination" : "21.63322185699381",
      "ascending_node_longitude" : "321.2797848378835",
      "orbital_period" : "543.8802341761993",
      "perihelion_distance" : ".8169581852529515",
      "perihelion_argument" : "94.14794779089165",
      "aphelion_distance" : "1.790995623226823",
      "perihelion_time" : "2454438.579346087483",
      "mean_anomaly" : "46.94312056987673",
      "mean_motion" : ".6619104306029474",
      "equinox" : "J2000",
      "orbit_class" : {
        "orbit_class_type" : "APO",
        "orbit_class_range" : "a (semi-major axis) > 1.0 AU; q (perihelion) < 1.017 AU",
        "orbit_class_description" : "Near-Earth asteroid orbits which cross the Earth’s orbit similar to that of 1862 Apollo"
      }
    },
    "is_sentry_object" : false
  }, {
    "links" : {
      "self" : "https://api.nasa.gov/neo/rest/v1/neo/3402639?api_key=jqAGvNAwUIBu4fl9FSOjdm3V4F7hIglRzI6pdX9d"
    },
    "neo_reference_id" : "3402639",
    "name" : "(2008 CA119)",
    "designation" : "2008 CA119",
    "nasa_jpl_url" : "http://ssd.jpl.nasa.gov/sbdb.cgi?sstr=3402639",
    "absolute_magnitude_h" : 23.1,
    "estimated_diameter" : {
      "kilometers" : {
        "estimated_diameter_min" : 0.063760979,
        "estimated_diameter_max" : 0.1425738833
      },
      "meters" : {
        "estimated_diameter_min" : 63.7609789875,
        "estimated_diameter_max" : 142.5738833281
      },
      "miles" : {
        "estimated_diameter_min" : 0.0396192233,
        "estimated_diameter_max" : 0.0885912765
      },
      "feet" : {
        "estimated_diameter_min" : 209.1895703015,
        "estimated_diameter_max" : 467.7620993781
      }
    },
    "is_potentially_hazardous_asteroid" : false,
    "close_approach_data" : [ {
      "close_approach_date" : "2008-02-25",
      "epoch_date_close_approach" : 1203926400000,
      "relative_velocity" : {
        "kilometers_per_second" : "9.1973085281",
        "kilometers_per_hour" : "33110.3107012691",
        "miles_per_hour" : "20573.4594465747"
      },
      "miss_distance" : {
        "astronomical" : "0.0948338138",
        "lunar" : "36.8903541565",
        "kilometers" : "14186937",
        "miles" : "8815354"
      },
      "orbiting_body" : "Earth"
    } ],
    "orbital_data" : {
      "orbit_id" : "8",
      "orbit_determination_date" : "2017-04-06 09:04:19",
      "first_observation_date" : "2008-02-12",
      "last_observation_date" : "2008-02-24",
      "data_arc_in_days" : 12,
      "observations_used" : 23,
      "orbit_uncertainty" : "9",
      "minimum_orbit_intersection" : ".0612165",
      "jupiter_tisserand_invariant" : "4.252",
      "epoch_osculation" : "2454511.5",
      "eccentricity" : ".3671861492696116",
      "semi_major_axis" : "1.609687505462456",
      "inclination" : "9.805861242316976",
      "ascending_node_longitude" : "330.9624086583124",
      "orbital_period" : "745.951834642898",
      "perihelion_distance" : "1.01863254880429",
      "perihelion_argument" : "214.9780770786485",
      "aphelion_distance" : "2.200742462120622",
      "perihelion_time" : "2454545.320536309163",
      "mean_anomaly" : "343.6780439354677",
      "mean_motion" : ".4826048858400344",
      "equinox" : "J2000",
      "orbit_class" : {
        "orbit_class_type" : "AMO",
        "orbit_class_range" : "1.017 AU < q (perihelion) < 1.3 AU",
        "orbit_class_description" : "Near-Earth asteroid orbits similar to that of 1221 Amor"
      }
    },
    "is_sentry_object" : false
  }, {
    "links" : {
      "self" : "https://api.nasa.gov/neo/rest/v1/neo/3403151?api_key=jqAGvNAwUIBu4fl9FSOjdm3V4F7hIglRzI6pdX9d"
    },
    "neo_reference_id" : "3403151",
    "name" : "(2008 DD)",
    "designation" : "2008 DD",
    "nasa_jpl_url" : "http://ssd.jpl.nasa.gov/sbdb.cgi?sstr=3403151",
    "absolute_magnitude_h" : 20.4,
    "estimated_diameter" : {
      "kilometers" : {
        "estimated_diameter_min" : 0.2210828104,
        "estimated_diameter_max" : 0.4943561926
      },
      "meters" : {
        "estimated_diameter_min" : 221.0828103591,
        "estimated_diameter_max" : 494.3561926196
      },
      "miles" : {
        "estimated_diameter_min" : 0.137374447,
        "estimated_diameter_max" : 0.3071786018
      },
      "feet" : {
        "estimated_diameter_min" : 725.3373275385,
        "estimated_diameter_max" : 1621.9035709942
      }
    },
    "is_potentially_hazardous_asteroid" : true,
    "close_approach_data" : [ {
      "close_approach_date" : "2008-03-04",
      "epoch_date_close_approach" : 1204617600000,
      "relative_velocity" : {
        "kilometers_per_second" : "11.9869109785",
        "kilometers_per_hour" : "43152.8795227397",
        "miles_per_hour" : "26813.5211678934"
      },
      "miss_distance" : {
        "astronomical" : "0.1494649048",
        "lunar" : "58.1418495178",
        "kilometers" : "22359632",
        "miles" : "13893631"
      },
      "orbiting_body" : "Earth"
    } ],
    "orbital_data" : {
      "orbit_id" : "13",
      "orbit_determination_date" : "2017-04-06 09:04:17",
      "first_observation_date" : "2008-02-18",
      "last_observation_date" : "2008-04-02",
      "data_arc_in_days" : 44,
      "observations_used" : 49,
      "orbit_uncertainty" : "7",
      "minimum_orbit_intersection" : ".0489714",
      "jupiter_tisserand_invariant" : "3.722",
      "epoch_osculation" : "2458600.5",
      "eccentricity" : ".4637539583244555",
      "semi_major_axis" : "1.943089774381663",
      "inclination" : "15.34686493850062",
      "ascending_node_longitude" : "355.526653167542",
      "orbital_period" : "989.3221355490377",
      "perihelion_distance" : "1.041974200132394",
      "perihelion_argument" : "186.7927937856462",
      "aphelion_distance" : "2.844205348630932",
      "perihelion_time" : "2458495.850256802295",
      "mean_anomaly" : "38.08052624867855",
      "mean_motion" : ".363885520261015",
      "equinox" : "J2000",
      "orbit_class" : {
        "orbit_class_type" : "AMO",
        "orbit_class_range" : "1.017 AU < q (perihelion) < 1.3 AU",
        "orbit_class_description" : "Near-Earth asteroid orbits similar to that of 1221 Amor"
      }
    },
    "is_sentry_object" : false
  } ]
}